1 29155U 06018A   11018.22467957 -.00000242  00000-0  10000-3 0  4426
2 29155 000.3776 078.7612 0002168 344.7855 059.8427 01.00271951 17077